H1 CPF 01  gfz 2022 08 08 12  7202 tandemx   
H2 1003001  6202 36605    2022 08 08 12 59 42 2022 08 13 00 00 42   120 1 1  0 0 0
H9
10 0 59801  56142.000000  0    3966031.347   2080792.371   5223990.628
10 0 59801  56262.000000  0    3428607.007   1556879.981   5758043.741
10 0 59801  56382.000000  0    2821991.753   1015790.056   6190829.231
10 0 59801  56502.000000  0    2156587.950    468097.178   6514775.004
10 0 59801  56622.000000  0    1443998.452    -75708.195   6724218.712
10 0 59801  56742.000000  0     696821.981   -605419.627   6815503.168
10 0 59801  56862.000000  0     -71571.623  -1111306.465   6787036.248
10 0 59801  56982.000000  0    -847280.826  -1584291.994   6639316.146
10 0 59801  57102.000000  0   -1616123.385  -2016116.413   6374922.094
10 0 59801  57222.000000  0   -2363893.574  -2399480.531   5998470.975
10 0 59801  57342.000000  0   -3076623.250  -2728169.737   5516544.018
10 0 59801  57462.000000  0   -3740846.860  -2997158.286   4937579.616
10 0 59801  57582.000000  0   -4343860.894  -3202688.577   4271729.480
10 0 59801  57702.000000  0   -4873971.934  -3342324.331   3530684.289
10 0 59801  57822.000000  0   -5320729.430  -3414976.853   2727471.186
10 0 59801  57942.000000  0   -5675139.198  -3420904.631   1876225.493
10 0 59801  58062.000000  0   -5929851.359  -3361685.323    991937.904
10 0 59801  58182.000000  0   -6079316.509  -3240159.126     90183.746
10 0 59801  58302.000000  0   -6119907.115  -3060346.146   -813159.183
10 0 59801  58422.000000  0   -6050000.729  -2827339.573  -1702200.158
10 0 59801  58542.000000  0   -5870020.598  -2547176.419  -2561324.270
10 0 59801  58662.000000  0   -5582435.194  -2226690.954  -3375472.234
10 0 59801  58782.000000  0   -5191717.508  -1873354.610  -4130407.451
10 0 59801  58902.000000  0   -4704265.394  -1495106.257  -4812964.074
10 0 59801  59022.000000  0   -4128286.100  -1100177.363  -5411272.750
10 0 59801  59142.000000  0   -3473647.071   -696915.571  -5914959.555
10 0 59801  59262.000000  0   -2751698.202   -293611.416  -6315315.133
10 0 59801  59382.000000  0   -1975069.848    101668.332  -6605433.542
10 0 59801  59502.000000  0   -1157449.574    481237.117  -6780319.801
10 0 59801  59622.000000  0    -313343.425    837932.968  -6836966.040
10 0 59801  59742.000000  0     542175.724   1165250.068  -6774396.875
10 0 59801  59862.000000  0    1393729.543   1457453.286  -6593685.752
10 0 59801  59982.000000  0    2225905.295   1709677.237  -6297940.285
10 0 59801  60102.000000  0    3023529.706   1918006.791  -5892254.280
10 0 59801  60222.000000  0    3771942.013   2079537.417  -5383627.927
10 0 59801  60342.000000  0    4457261.895   2192415.328  -4780858.646
10 0 59801  60462.000000  0    5066650.606   2255857.058  -4094400.537
10 0 59801  60582.000000  0    5588557.656   2270146.803  -3336192.492
10 0 59801  60702.000000  0    6012948.023   2236611.658  -2519458.896
10 0 59801  60822.000000  0    6331506.778   2157575.293  -1658483.794
10 0 59801  60942.000000  0    6537812.529   2036290.166   -768360.684
10 0 59801  61062.000000  0    6627476.536   1876849.350    135275.298
10 0 59801  61182.000000  0    6598241.142   1684079.673   1036529.456
10 0 59801  61302.000000  0    6450036.347   1463420.077   1919533.270
10 0 59801  61422.000000  0    6184994.687   1220787.024   2768733.629
10 0 59801  61542.000000  0    5807418.906    962430.134   3569175.332
10 0 59801  61662.000000  0    5323706.617    694782.988   4306771.421
10 0 59801  61782.000000  0    4742232.650    424312.192   4968553.856
10 0 59801  61902.000000  0    4073195.475    157369.572   5542902.418
10 0 59801  62022.000000  0    3328427.563    -99951.101   6019747.240
10 0 59801  62142.000000  0    2521176.932   -341946.920   6390739.329
10 0 59801  62262.000000  0    1665866.263   -563427.029   6649390.865
10 0 59801  62382.000000  0     777831.472   -759820.481   6791183.999
10 0 59801  62502.000000  0    -126956.328   -927268.457   6813644.726
10 0 59801  62622.000000  0   -1032178.085  -1062698.955   6716382.169
10 0 59801  62742.000000  0   -1921460.071  -1163883.233   6501094.175
10 0 59801  62862.000000  0   -2778668.258  -1229472.140   6171538.779
10 0 59801  62982.000000  0   -3588200.081  -1259012.386   5733474.296
10 0 59801  63102.000000  0   -4335272.199  -1252943.662   5194566.086
10 0 59801  63222.000000  0   -5006196.551  -1212576.308   4564258.247
10 0 59801  63342.000000  0   -5588638.957  -1140048.599   3853612.323
10 0 59801  63462.000000  0   -6071853.986  -1038264.887   3075115.514
10 0 59801  63582.000000  0   -6446892.006   -910816.031   2242463.111
10 0 59801  63702.000000  0   -6706776.270   -761883.935   1370316.395
10 0 59801  63822.000000  0   -6846641.290   -596132.174    474037.885
10 0 59801  63942.000000  0   -6863828.242   -418585.496   -430587.342
10 0 59801  64062.000000  0   -6757936.534   -234501.101  -1327638.697
10 0 59801  64182.000000  0   -6530828.674    -49235.055  -2201348.952
10 0 59801  64302.000000  0   -6186591.531    131891.806  -3036387.315
10 0 59801  64422.000000  0   -5731453.648    303726.468  -3818134.807
10 0 59801  64542.000000  0   -5173659.061    461410.980  -4532941.802
10 0 59801  64662.000000  0   -4523304.617    600500.613  -5168363.579
10 0 59801  64782.000000  0   -3792144.618    717071.146  -5713370.039
10 0 59801  64902.000000  0   -2993368.519    807811.890  -6158527.660
10 0 59801  65022.000000  0   -2141356.628    870103.094  -6496150.506
10 0 59801  65142.000000  0   -1251419.710    902077.459  -6720421.863
10 0 59801  65262.000000  0    -339524.961    902664.445  -6827483.564
10 0 59801  65382.000000  0     577984.263    871616.267  -6815493.747
10 0 59801  65502.000000  0    1484672.980    809515.594  -6684657.021
10 0 59801  65622.000000  0    2364303.429    717764.979  -6437222.750
10 0 59801  65742.000000  0    3201120.117    598558.225  -6077450.263
10 0 59801  65862.000000  0    3980128.243    454833.936  -5611542.430
10 0 59801  65982.000000  0    4687360.673    290210.998  -5047549.152
10 0 59801  66102.000000  0    5310131.723    108908.511  -4395240.422
10 0 59801  66222.000000  0    5837272.212    -84349.840  -3665947.369
10 0 59801  66342.000000  0    6259339.153   -284444.928  -2872374.197
10 0 59801  66462.000000  0    6568797.422   -485982.856  -2028383.605
10 0 59801  66582.000000  0    6760167.662   -683424.452  -1148756.286
10 0 59801  66702.000000  0    6830134.865   -871219.999   -248930.151
10 0 59801  66822.000000  0    6777615.464  -1043946.549    655275.262
10 0 59801  66942.000000  0    6603780.046  -1196444.270   1547944.652
10 0 59801  67062.000000  0    6312031.132  -1323948.479   2413355.725
10 0 59801  67182.000000  0    5907934.580  -1422212.874   3236266.162
10 0 59801  67302.000000  0    5399107.483  -1487621.219   4002188.761
10 0 59801  67422.000000  0    4795066.517  -1517285.854   4697651.259
10 0 59801  67542.000000  0    4107040.195  -1509128.657   5310434.775
10 0 59801  67662.000000  0    3347751.088  -1461943.239   5829787.692
10 0 59801  67782.000000  0    2531171.335  -1375438.220   6246610.904
10 0 59801  67902.000000  0    1672259.166  -1250260.294   6553611.297
10 0 59801  68022.000000  0     786680.429  -1087996.934   6745424.186
10 0 59801  68142.000000  0    -109480.179   -891157.545   6818701.273
10 0 59801  68262.000000  0   -1000011.388   -663134.485   6772164.089
10 0 59801  68382.000000  0   -1868867.166   -408144.731   6606624.399
10 0 59801  68502.000000  0   -2700454.352   -131152.270   6324970.927
10 0 59801  68622.000000  0   -3479912.144    162227.276   5932123.201
10 0 59801  68742.000000  0   -4193380.191    465838.208   5434951.640
10 0 59801  68862.000000  0   -4828250.155    773110.772   4842163.283
10 0 59801  68982.000000  0   -5373395.894   1077199.523   4164155.065
10 0 59801  69102.000000  0   -5819377.063   1371131.578   3412834.839
10 0 59801  69222.000000  0   -6158611.361   1647961.301   2601414.295
10 0 59801  69342.000000  0   -6385512.639   1900927.960   1744176.076
10 0 59801  69462.000000  0   -6496591.163   2123612.738    856218.786
10 0 59801  69582.000000  0   -6490511.895   2310091.508    -46816.396
10 0 59801  69702.000000  0   -6368108.493   2455078.037   -949030.021
10 0 59801  69822.000000  0   -6132353.575   2554054.662  -1834553.119
10 0 59801  69942.000000  0   -5788286.647   2603387.824  -2687834.627
10 0 59801  70062.000000  0   -5342899.699   2600424.791  -3493921.680
10 0 59801  70182.000000  0   -4804985.082   2543568.440  -4238724.420
10 0 59801  70302.000000  0   -4184951.265   2432329.629  -4909261.024
10 0 59801  70422.000000  0   -3494610.818   2267356.357  -5493878.242
10 0 59801  70542.000000  0   -2746947.831   2050439.943  -5982444.482
10 0 59801  70662.000000  0   -1955869.330   1784498.212  -6366515.629
10 0 59801  70782.000000  0   -1135943.417   1473535.586  -6639469.439
10 0 59801  70902.000000  0    -302133.078   1122581.829  -6796607.771
10 0 59801  71022.000000  0     530471.600    737610.831  -6835228.077
10 0 59801  71142.000000  0    1346919.007    325441.156  -6754666.229
10 0 59801  71262.000000  0    2132659.636   -106382.354  -6556307.445
10 0 59801  71382.000000  0    2873799.148   -549722.971  -6243564.337
10 0 59801  71502.000000  0    3557340.759   -996000.934  -5821824.800
10 0 59801  71622.000000  0    4171411.143  -1436354.354  -5298367.847
10 0 59801  71742.000000  0    4705469.376  -1861811.302  -4682250.446
10 0 59801  71862.000000  0    5150493.878  -2263470.115  -3984161.782
10 0 59801  71982.000000  0    5499143.102  -2632683.356  -3216247.860
10 0 59801  72102.000000  0    5745887.185  -2961242.095  -2391907.428
10 0 59801  72222.000000  0    5887105.796  -3241556.263  -1525561.359
10 0 59801  72342.000000  0    5921149.540  -3466826.525   -632400.670
10 0 59801  72462.000000  0    5848363.208  -3631203.897    271883.433
10 0 59801  72582.000000  0    5671068.936  -3729932.292   1171381.343
99
